[{"OBJECT_NAME":"WILDFIRE 9","OBJECT_ID":"2023-133J","EPOCH":"2026-03-09T14:40:36.790752","MEAN_MOTION":13.85385893,"ECCENTRICITY":0.0004797,"INCLINATION":81.0007,"RA_OF_ASC_NODE":103.5212,"ARG_OF_PERICENTER":283.4669,"MEAN_ANOMALY":76.5953,"EPHEMERIS_TYPE":0,"CLASSIFICATION_TYPE":"U","NORAD_CAT_ID":57765,"ELEMENT_SET_NO":999,"REV_AT_EPOCH":12723,"BSTAR":6.5194e-5,"MEAN_MOTION_DOT":8.5e-7,"MEAN_MOTION_DDOT":0},{"OBJECT_NAME":"PRAETORIAN SDA_611","OBJECT_ID":"2025-203K","EPOCH":"2026-03-09T12:43:32.643552","MEAN_MOTION":13.83296236,"ECCENTRICITY":0.00068676,"INCLINATION":81.297,"RA_OF_ASC_NODE":103.1149,"ARG_OF_PERICENTER":110.8784,"MEAN_ANOMALY":249.3108,"EPHEMERIS_TYPE":0,"CLASSIFICATION_TYPE":"U","NORAD_CAT_ID":65574,"ELEMENT_SET_NO":999,"REV_AT_EPOCH":2490,"BSTAR":0.00026081524,"MEAN_MOTION_DOT":2.98e-6,"MEAN_MOTION_DDOT":0}]
