WILDFIRE 9              
1 57765U 23133J   26068.61153693  .00000085  00000+0  65194-4 0  9999
2 57765  81.0007 103.5212 0004797 283.4669  76.5953 13.85385893127230
PRAETORIAN SDA_611      
1 65574U 25203K   26068.53023893  .00000298  00000+0  26082-3 0  9993
2 65574  81.2970 103.1149 0006867 110.8784 249.3108 13.83296236 24906
